Facility Name,Legislative District Number,LicenseNumber,FacilityId,Parent Company,Website,Street,City,Zip,County,Capacity,Phone,Notes,Legislator_1,Legislator_2,Legislator_3,Legislator_4,Party_1,Party_2,Party_3,Party_4,Email_1,Email_2,Email_3,Email_4,Unnamed: 4_1,Unnamed: 4_2,Unnamed: 4_3,Unnamed: 4_4,Unnamed: 5_1,Unnamed: 5_2,Unnamed: 5_3,Unnamed: 5_4
"***Last Updated August 1, 2025",,,,,,,,,,,,,,,,,,,,,,,,,,,,,,,,
A CARING COMMUNITY LLC,27.0,BH6807,001cs00000Wo4VOAAZ,,https://www.acaringcommunityllc.com/,3931 West Sweetwater Avenue,Phoenix,85029.0,Maricopa,5.0,6022998430,,Lisa Fink,Tony Rivero,Kevin Payne,,R,R,R,,Email: LFINK,Email: TRIVERO,Email: KPAYNE,,Room 345,Room 112,Room 302,,(602) 926-3516,(602) 926-3528,(602) 926-4854,
ADVANCED BEHAVIORAL HEALTH LLC,29.0,BH10468,001cs00000Wo4m9AAB,,https://azcarecheck.azdhs.gov/s/facility-details?facilityId=001cs00000Wo4m9AAB&programType=Health%20Care%20Facilties,25786 North Desert Mesa Drive,Surprise,85387.0,Maricopa,10.0,(480)269-5771,,James Taylor,Steve Montenegro -- Speaker,Janae Shamp,,R,R,R,,Email: JTAYLOR,Email: SMONTENEGRO,Email: JSHAMP,,Room 344,Room 223,Room 212,,(602) 926-3564,(602) 926-3635,(602) 926-3499,
Align Origin,19.0,BHRF20018,001cs00000XFRBNAA5,,,3333 N In Balance Rd Building 1 & 2,Huachuca City,85616.0,,8.0,(520) 722-9631,Rebranded from In Balance Ranch,Lupe Diaz,Gail Griffin,David Gowan,,R,R,R,,Email: LDIAZ,Email: GGRIFFIN,Email: DGOWAN,,Room 302,Room 225,Room 300,,(602) 926-4852,(602) 926-5895,(602) 926-5154,
ALL ABOUT KIDS,13.0,BH3031,001cs00000Wo540AAB,,Not found,2510 East Yellowstone Place,Chandler,85249.0,Maricopa,5.0,4802289510,,Jeff Weninger,Julie Willoughby -- Majority Whip,J.D. Mesnard,,R,R,R,,Email: JWENINGER,Email: JWILLOUGHBY,Email: JMESNARD,,Room 316,Room 207,Room 309,,(602) 926-3392,(602) 926-4153,(602) 926-4481,
ANGEL SAFE HAVEN LLC,25.0,BH6115,001cs00000Wo5H5AAJ,,Not found,2571 North 149th Avenue,Goodyear,85395.0,Maricopa,5.0,6232106382,,Nick Kupper,Michael Carbone -- Majority Leader,"Timothy ""Tim"" Dunn",,R,R,R,,Email: NKUPPER,Email: MCARBONE,Email: TDUNN,,Room 318,Room 208,Room 310,,(602) 926-3512,(602) 926-4038,(602) 926-4139,
ANIMALS FACILITATING ADOLESCENTS AND CHILDREN,13.0,BH4395,001cs00000Wo5XmAAJ,,Not found,"39213 South Wild Hardt Way, Suite A",Marana,85658.0,Pima,5.0,5204009444,,Jeff Weninger,Julie Willoughby -- Majority Whip,J.D. Mesnard,,R,R,R,,Email: JWENINGER,Email: JWILLOUGHBY,Email: JMESNARD,,Room 316,Room 207,Room 309,,(602) 926-3392,(602) 926-4153,(602) 926-4481,
ARIZONA CHILDREN'S GROUP LLC,12.0,BH5927,001cs00000Wo5bxAAB,,https://www.azchildrensgroup.com/,142 West Ivanhoe Place,Chandler,85225.0,Maricopa,5.0,4809551454,,Stacey Travers -- Minority Whip,Patty Contreras,Denise “Mitzi” Epstein,,D,D,D,,Email: STRAVERS,Email: PCONTRERAS,Email: MEPSTEIN,,Room 322,Room 126,Room 315,,(602) 926-3917,(602) 926-4057,(602) 926-4870,
ARTEMIS ADOLESCENT HEALING CENTER,17.0,BH10722,001cs00000Wo6GAAAZ,,https://artemisaz.com/,16330 North Forecastle Avenue,Tucson,85739.0,Pima,10.0,5206148647,,Kevin Volk,Rachel Keshel,"Venden ""Vince"" Leach",,D,R,R,,Email: KVOLK,Email: RKESHEL,Email: VLEACH,,Room 119,Room 303,Room 303,,(602) 926-3498,(602) 926-3558,(602) 926-3694,
AVERY'S HOUSE,4.0,BH7285,001cs00000Wo6YRAAZ,,Not found,11057 North Pinto Drive,Fountain Hills,85268.0,Maricopa,10.0,4804362725,,Pamela Carter,Matt Gress,Carine Werner,,R,R,R,,Email: PCARTER,Email: MGRESS,Email: CWERNER,,Room 304,Room 205,Room 301,,(602) 926-3153,(602) 926-4105,(602) 926-3673,
AVERY'S HOUSE LLC,10.0,BH7513,001cs00000Wo6YSAAZ,,https://www.averyshouse.com/landing/residential/?gad_source=1&gad_campaignid=22785869200&gbraid=0AAAAApKjrupkcWjDO-epO0xbbfUQpkjTz&gclid=Cj0KCQjwnovFBhDnARIsAO4V7mAYVKz40aaJs4AAMCRhamlJxZASpx39XHTQhVt9BJotlQ81Y9fBKrAaAkHTEALw_wcB,2416 North 113th Street,Apache Junction,85120.0,Pinal,10.0,4806706761,,Justin Olson,Ralph Heap,David C. Farnsworth,,R,R,R,,Email: JOLSON,Email: RHEAP,Email: DFARNSWORTH,,Room 113,Room 309,Room 303,,(602) 926-3376,(602) 926-3381,(602) 926-3387,
BACK TO LIFE INC,24.0,BH2772,001cs00000Wo6bUAAR,,https://backtolifeinc2.com/,5915 West Roanoke Avenue,Phoenix,85035.0,Maricopa,8.0,6235189552,,Anna Abeytia,Lydia Hernandez,Analise Ortiz,,D,D,D,,Email: AABEYTIA,Email: LHERNANDEZ,Email: ANALISE.ORTIZ,,Room 121,Room 334,Room 308,,(602) 926-3501,(602) 926-3553,(602) 926-3633,
"BACK TO LIFE, INCORPORATED",22.0,BH5803,001cs00000Wo6bWAAR,,https://backtolifeinc2.com/,6420 West Cocopah Street,Phoenix,85043.0,Maricopa,6.0,6235189552,,Elda Luna-Nájera,Lupe Contreras,Eva Diaz,,D,D,D,,Email: ELUNA-NAJERA,Email: LCONTRERAS,Email: EVA.DIAZ,,Room 332,Room 331,Room 313,,(602) 926-3881,(602) 926-5284,(602) 926-3473,
BASAMI HOUSE LLC,3.0,BH8484,001cs00000Wo6s5AAB,,Not found,2018 West Morning Vista Lane,Phoenix,85085.0,Maricopa,10.0,6029039193,,Joseph Chaplik,Alexander Kolodin,John Kavanagh -- Majority Leader,,R,R,R,,Email: JCHAPLIK,Email: AKOLODIN,Email: JKAVANAGH,,Room 312,Room 323,Room 200,,(602) 926-3436,(602) 926-3560,(602) 926-5170,
"BASAMI HOUSE, LLC",28.0,BH5341,001cs00000Wo6s4AAB,,Not found,21851 North 34th Drive,Phoenix,85027.0,Maricopa,5.0,6029039193,,Beverly Pingerelli,David Livingston,Frank Carroll -- Majority Whip,,R,R,R,,Email: BPINGERELLI,Email: DLIVINGSTON,Email: FCARROLL,,Room 131,Room 222,Room 212,,(602) 926-3396,(602) 926-4178,(602) 926-3249,
BOJ RESIDENTIAL HOMES,14.0,BH7153,001cs00000Wo7FjAAJ,,Not found,3924 East Andre Avenue,Gilbert,85298.0,Maricopa,4.0,4802507412,,Khyl Powell,Laurin Hendrix,Warren Petersen -- President,,R,R,R,,Email: KPOWELL,Email: LHENDRIX,Email: WPETERSEN,,Room 342,Room 114,Room 205,,(602) 926-3415,(602) 926-4209,(602) 926-4136,
Camelback Kids,21.0,BH7444,001cs00000Wo7UCAAZ,,https://sclu.science/,7517 West Shumway Farm Road,Laveen,85339.0,Maricopa,5.0,4802159056,,Stephanie Stahl Hamilton,Consuelo Hernandez,Rosanna Gabaldón -- Minority Whip,,D,D,D,,Email: SSTAHLHAMILTON,Email: CHERNANDEZ,Email: RGABALDON,,Room 333,Room 117,Room 305,,(602) 926-3279,(602) 926-3523,(602) 926-3424,
CONNECTED HEARTS LLC - BHRF,10.0,BH10546,001cs00000Wo86wAAB,,Not found,10548 East Mercury Drive,Apache Junction,85120.0,Pinal,4.0,9526523289,,Justin Olson,Ralph Heap,David C. Farnsworth,,R,R,R,,Email: JOLSON,Email: RHEAP,Email: DFARNSWORTH,,Room 113,Room 309,Room 303,,(602) 926-3376,(602) 926-3381,(602) 926-3387,
COPA'S CARING HANDS,15.0,BH5423,001cs00000Wo87nAAB,,Not found,42251 West Bravo Drive,Maricopa,85138.0,Pinal,6.0,6027931380,,Michael Way,Neal Carter -- Speaker Pro Tempore,Jake Hoffman,,R,R,R,,Email: MWAY,Email: NCARTER,Email: JAKE.HOFFMAN,,Room 308,Room 204,Room 306,,(602) 926-3433,(602) 926-5761,(602) 926-3292,
DALIA HOMECARE LLC,11.0,BH6545,001cs00000Wo8OoAAJ,,Not found,426 West Beautiful Lane,Phoenix,85041.0,Maricopa,5.0,6127359836,,Junelle Cavero,Oscar De Los Santos -- Minority Leader,Catherine Miranda -- Assistant Minority Leader,,D,D,D,,Email: JCAVERO,Email: ODELOSSANTOS,Email: CMIRANDA,,Room 325,Room 320,Room 313,,(602) 926-3285,(602) 926-4098,(602) 926-3413,
DALIA HOMECARE MARIPOSA,25.0,BH10355,001cs00000Wo8OrAAJ,,Not found,11217 West Mariposa Drive,Phoenix,85037.0,Maricopa,4.0,6027572927,,Nick Kupper,Michael Carbone -- Majority Leader,"Timothy ""Tim"" Dunn",,R,R,R,,Email: NKUPPER,Email: MCARBONE,Email: TDUNN,,Room 318,Room 208,Room 310,,(602) 926-3512,(602) 926-4038,(602) 926-4139,
DALIA HOMECARE VALENCIA,21.0,BH10297,001cs00000Wo8OtAAJ,,Not found,4437 West Valencia Drive,Laveen,85339.0,Maricopa,5.0,6027572927,,Stephanie Stahl Hamilton,Consuelo Hernandez,Rosanna Gabaldón -- Minority Whip,,D,D,D,,Email: SSTAHLHAMILTON,Email: CHERNANDEZ,Email: RGABALDON,,Room 333,Room 117,Room 305,,(602) 926-3279,(602) 926-3523,(602) 926-3424,
"DENALI YOUTH HOMES OF ARIZONA, LLC",21.0,BH10333,001cs00000Wo8bUAAR,,Not found,5747 West Warner Street,Phoenix,85043.0,Maricopa,5.0,9073010333,,Stephanie Stahl Hamilton,Consuelo Hernandez,Rosanna Gabaldón -- Minority Whip,,D,D,D,,Email: SSTAHLHAMILTON,Email: CHERNANDEZ,Email: RGABALDON,,Room 333,Room 117,Room 305,,(602) 926-3279,(602) 926-3523,(602) 926-3424,
DEVEREUX ARIZONA - BROADWAY CAMPUS,18.0,BH6614,001cs00000Wo8dwAAB,Devereux,https://www.devereux.org/site/SPageServer/?pagename=az_broadway,7444 East Broadway Boulevard,Tucson,85710.0,Pima,24.0,623-633-3418,,Christopher Mathis,Nancy Gutierrez -- Assistant Minority Leader,Priya Sundareshan -- Minority Leader,,D,D,D,,Email: CMATHIS,Email: NGUTIERREZ,Email: PSUNDARESHAN,,Room 337,Room 330,Room 213,,(602) 926-3138,(602) 926-4134,(602) 926-3437,
DEVEREUX ARIZONA - CASA AMISTAD,17.0,BH4295,001cs00000Wo8dxAAB,Devereux,https://www.devereux.org/site/SPageServer/?pagename=az_casaamistad,1202 North Dodge Boulevard,Tucson,85716.0,Pima,8.0,480-889-0558,,Kevin Volk,Rachel Keshel,"Venden ""Vince"" Leach",,D,R,R,,Email: KVOLK,Email: RKESHEL,Email: VLEACH,,Room 119,Room 303,Room 303,,(602) 926-3498,(602) 926-3558,(602) 926-3694,
DEVEREUX ARIZONA - CASA ENSUENO,18.0,BH4400,001cs00000Wo8dyAAB,Devereux,https://www.devereux.org/site/SPageServer/?pagename=az_casaensueno,100 North Camino Seco,Tucson,85710.0,Pima,7.0,623-633-3418,,Christopher Mathis,Nancy Gutierrez -- Assistant Minority Leader,Priya Sundareshan -- Minority Leader,,D,D,D,,Email: CMATHIS,Email: NGUTIERREZ,Email: PSUNDARESHAN,,Room 337,Room 330,Room 213,,(602) 926-3138,(602) 926-4134,(602) 926-3437,
DEVEREUX ARIZONA - CASA SOL,17.0,BH5570,001cs00000Wo8dzAAB,Devereux,https://www.devereux.org/site/SPageServer/?pagename=az_casasol,2000 East Spring Street,Tucson,85719.0,Pima,6.0,623-633-3418,,Kevin Volk,Rachel Keshel,"Venden ""Vince"" Leach",,D,R,R,,Email: KVOLK,Email: RKESHEL,Email: VLEACH,,Room 119,Room 303,Room 303,,(602) 926-3498,(602) 926-3558,(602) 926-3694,
DEVEREUX ARIZONA - CASA VALOR,18.0,BH4704,001cs00000Wo8e0AAB,Devereux,https://www.devereux.org/site/SPageServer/?pagename=az_casavalor,961 North Camino Mira Monte,Tucson,85716.0,Pima,10.0,623-633-3418,,Christopher Mathis,Nancy Gutierrez -- Assistant Minority Leader,Priya Sundareshan -- Minority Leader,,D,D,D,,Email: CMATHIS,Email: NGUTIERREZ,Email: PSUNDARESHAN,,Room 337,Room 330,Room 213,,(602) 926-3138,(602) 926-4134,(602) 926-3437,
DIVINE HELP LLC,24.0,BH9356,001cs00000Wo8vFAAR,,Not found,7208 West Windsor Avenue,Phoenix,85035.0,Maricopa,5.0,6026010586,,Anna Abeytia,Lydia Hernandez,Analise Ortiz,,D,D,D,,Email: AABEYTIA,Email: LHERNANDEZ,Email: ANALISE.ORTIZ,,Room 121,Room 334,Room 308,,(602) 926-3501,(602) 926-3553,(602) 926-3633,
EAGLE'S NEST RESIDENTIAL - EUCLID,11.0,BH5899,001cs00000Wo8w9AAB,,Not found,1832 East Euclid Avenue,Phoenix,85042.0,Maricopa,5.0,6023059599,,Junelle Cavero,Oscar De Los Santos -- Minority Leader,Catherine Miranda -- Assistant Minority Leader,,D,D,D,,Email: JCAVERO,Email: ODELOSSANTOS,Email: CMIRANDA,,Room 325,Room 320,Room 313,,(602) 926-3285,(602) 926-4098,(602) 926-3413,
EAGLE'S NEST THUNDERBIRD BOYS & GIRLS,11.0,BH8249,001cs00000Wo8wAAAR,,Not found,540 East Thunderbird Trail,Phoenix,85042.0,Maricopa,5.0,6023059599,,Junelle Cavero,Oscar De Los Santos -- Minority Leader,Catherine Miranda -- Assistant Minority Leader,,D,D,D,,Email: JCAVERO,Email: ODELOSSANTOS,Email: CMIRANDA,,Room 325,Room 320,Room 313,,(602) 926-3285,(602) 926-4098,(602) 926-3413,
EAGLES NEST BOYS & GIRLS RESIDENTIAL AGENCY,11.0,BH4442,001cs00000Wo8wBAAR,,Not found,1802 East Dobbins Road,Phoenix,85042.0,Maricopa,10.0,6023059599,,Junelle Cavero,Oscar De Los Santos -- Minority Leader,Catherine Miranda -- Assistant Minority Leader,,D,D,D,,Email: JCAVERO,Email: ODELOSSANTOS,Email: CMIRANDA,,Room 325,Room 320,Room 313,,(602) 926-3285,(602) 926-4098,(602) 926-3413,
"EMOTICARE RIMROCK, LLC",1.0,BH10497,001cs00000Wo9AKAAZ,Emoticare (Previously Family Help & Wellness),https://www.sedonasky.org/,3095 East Coronado Trail,Rimrock,86335.0,Yavapai,53.0,9283712345,,Quang H Nguyen,Selina Bliss,Mark Finchem,,R,R,R,,Email: QNGUYEN,Email: SBLISS,Email: MFINCHEM,,Room 226,Room 306,Room 304,,(602) 926-3258,(602) 926-4018,(602) 926-3631,
"FLORENCE CRITTENTON SERVICES OF ARIZONA, INC",5.0,BH2133,001cs00000Wo9WaAAJ,Florence Crittenton,https://www.flocrit.org/,"715 West Mariposa Street, Building A",Phoenix,85013.0,Maricopa,40.0,6022747318,,Aaron Márquez,Sarah Liguori,Lela Alston -- Minority Caucus Chair,,D,D,D,,Email: AMARQUEZ,Email: SLIGUORI,Email: LALSTON,,Room 123,Room 115,Room 315,,(602) 926-3179,(602) 926-3264,(602) 926-5829,
FORWARD IN LIFE,26.0,BH6589,001cs00000Wo9X0AAJ,,https://forwardinlifeaz.com/,8402 North 33rd Drive,Phoenix,85051.0,Maricopa,5.0,4804044159,,Quantá Crews -- Minority Whip,Cesar Aguilar,Flavio Bravo,,D,D,D,,Email: QCREWS,Email: CAGUILAR,Email: FBRAVO,,Room 321,Room 122,Room 213,,(602) 926-3256,(602) 926-3953,(602) 926-4033,
FORWARD IN LIFE II,25.0,BH10658,001cs00000Wo9X1AAJ,,https://forwardinlifeaz.com/,4249 North 103rd Avenue,Phoenix,85037.0,Maricopa,8.0,4804044159,,Nick Kupper,Michael Carbone -- Majority Leader,"Timothy ""Tim"" Dunn",,R,R,R,,Email: NKUPPER,Email: MCARBONE,Email: TDUNN,,Room 318,Room 208,Room 310,,(602) 926-3512,(602) 926-4038,(602) 926-4139,
GENERATIONS GROUP HOME,19.0,BH6723,001cs00000Wo9pkAAB,,Not found,1763 Paseo San Luis Suite B,Sierra Vista,85635.0,Cochise,16.0,5204598433,,Lupe Diaz,Gail Griffin,David Gowan,,R,R,R,,Email: LDIAZ,Email: GGRIFFIN,Email: DGOWAN,,Room 302,Room 225,Room 300,,(602) 926-4852,(602) 926-5895,(602) 926-5154,
Gentle Path at The Meadows,30.0,IFBH6209,0018y000008f9YbAAI,,https://themeadowsseasons.com/,2075 North Vulture Mine Road,Wickenburg,85390.0,,56.0,(800) 708-1743,,Leo Biasiucci,John Gillette,Hildy Angius,,R,R,R,,Email: LBIASIUCCI,Email: JGILLETTE,Email: HANGIUS,,Room 110,Room 130,Room 302,,(602) 926-3018,(602) 926-4100,(602) 926-5051,
GLORIOUS CARE PROJECT LLC,16.0,BH8106,001cs00000Wo9qpAAB,,Not found,1087 West Avalon Canyon Drive,Casa Grande,85122.0,Pinal,6.0,2406606597,,Teresa Martinez,Chris Lopez,"Thomas ""T.J."" Shope -- President Pro Tempore",,R,R,R,,Email: TMARTINEZ,Email: CLOPEZ,Email: TSHOPE,,Room 129,Room 310,Room 212,,(602) 926-3158,(602) 926-3445,(602) 926-3012,
GOLDEN HEART CARE,26.0,BH6195,001cs00000Wo9rKAAR,,Not found,7250 North 23rd Avenue,Phoenix,85021.0,Maricopa,5.0,6232481162,,Quantá Crews -- Minority Whip,Cesar Aguilar,Flavio Bravo,,D,D,D,,Email: QCREWS,Email: CAGUILAR,Email: FBRAVO,,Room 321,Room 122,Room 213,,(602) 926-3256,(602) 926-3953,(602) 926-4033,
HEART OF GOLD GROUP HOME LLC,15.0,BH8884,001cs00000WoATWAA3,,Not found,41261 West Lucera Lane,Maricopa,85138.0,Pinal,6.0,5208404298,,Michael Way,Neal Carter -- Speaker Pro Tempore,Jake Hoffman,,R,R,R,,Email: MWAY,Email: NCARTER,Email: JAKE.HOFFMAN,,Room 308,Room 204,Room 306,,(602) 926-3433,(602) 926-5761,(602) 926-3292,
HORIZON RECOVERY,28.0,BH10217,001cs00000WoAt6AAF,Horizon Recovery,https://www.horizonrecovery.com/,5537 West Irma Lane,Glendale,85308.0,Maricopa,10.0,6236932198,,Beverly Pingerelli,David Livingston,Frank Carroll -- Majority Whip,,R,R,R,,Email: BPINGERELLI,Email: DLIVINGSTON,Email: FCARROLL,,Room 131,Room 222,Room 212,,(602) 926-3396,(602) 926-4178,(602) 926-3249,
HORIZON RECOVERY,22.0,BH10461,001cs00000WoAt8AAF,Horizon Recovery,https://www.horizonrecovery.com/,22190 West Ashleigh Marie Drive,Buckeye,85326.0,Maricopa,10.0,6236932198,,Elda Luna-Nájera,Lupe Contreras,Eva Diaz,,D,D,D,,Email: ELUNA-NAJERA,Email: LCONTRERAS,Email: EVA.DIAZ,,Room 332,Room 331,Room 313,,(602) 926-3881,(602) 926-5284,(602) 926-3473,
HORIZON RECOVERY DEER VALLEY LLC,28.0,BH10372,001cs00000WoAt9AAF,Horizon Recovery,https://www.horizonrecovery.com/,22201 North 91st Avenue,Peoria,85383.0,Maricopa,10.0,6236932198,,Beverly Pingerelli,David Livingston,Frank Carroll -- Majority Whip,,R,R,R,,Email: BPINGERELLI,Email: DLIVINGSTON,Email: FCARROLL,,Room 131,Room 222,Room 212,,(602) 926-3396,(602) 926-4178,(602) 926-3249,
HOUSE OF LOVE,16.0,BH9304,001cs00000WoAtZAAV,,Not found,45657 West Morning View Lane,Maricopa,85139.0,Pinal,6.0,6027565564,,Teresa Martinez,Chris Lopez,"Thomas ""T.J."" Shope -- President Pro Tempore",,R,R,R,,Email: TMARTINEZ,Email: CLOPEZ,Email: TSHOPE,,Room 129,Room 310,Room 212,,(602) 926-3158,(602) 926-3445,(602) 926-3012,
HUMAN CARE SERVICE II,16.0,BH8688,001cs00000WoB0kAAF,,Not found,45060 West Sage Brush Drive,Maricopa,85139.0,Pinal,6.0,8056360700,,Teresa Martinez,Chris Lopez,"Thomas ""T.J."" Shope -- President Pro Tempore",,R,R,R,,Email: TMARTINEZ,Email: CLOPEZ,Email: TSHOPE,,Room 129,Room 310,Room 212,,(602) 926-3158,(602) 926-3445,(602) 926-3012,
HUMAN CARE SERVICES,15.0,BH7917,001cs00000WoB0lAAF,,Not found,36550 West Santa Maria Street,Maricopa,85138.0,Pinal,10.0,8056360700,,Michael Way,Neal Carter -- Speaker Pro Tempore,Jake Hoffman,,R,R,R,,Email: MWAY,Email: NCARTER,Email: JAKE.HOFFMAN,,Room 308,Room 204,Room 306,,(602) 926-3433,(602) 926-5761,(602) 926-3292,
INNERG HOMES,15.0,BH9804,001cs00000WoB2VAAV,,Not found,13053 East Marigold Lane,Florence,85132.0,Pinal,5.0,6026722066,,Michael Way,Neal Carter -- Speaker Pro Tempore,Jake Hoffman,,R,R,R,,Email: MWAY,Email: NCARTER,Email: JAKE.HOFFMAN,,Room 308,Room 204,Room 306,,(602) 926-3433,(602) 926-5761,(602) 926-3292,
INTEGRITY YOUTH HOMES LLC,8.0,BH9781 ,001cs00000WoB35AAF,,Not found,552 North Santa Anna,Mesa,85201.0,Maricopa,4.0,4805979700,,Janeen Connolly,Brian Garcia,Lauren Kuby,,D,D,D,,Email: JCONNOLLY,Email: BGARCIA,Email: LKUBY,,Room 118,Room 335,Room 311,,(602) 926-3300,(602) 926-3329,(602) 926-4124,
INTERMOUNTAIN CENTERS FOR HUMAN DEVELOPMENT,17.0,BH1618,001cs00000WoB37AAF,Intermountain Centers for Human Development,https://www.intermountaincenters.org/,8571 East Tanque Verde Road,Tucson,85749.0,Pima,8.0,5207211887,,Kevin Volk,Rachel Keshel,"Venden ""Vince"" Leach",,D,R,R,,Email: KVOLK,Email: RKESHEL,Email: VLEACH,,Room 119,Room 303,Room 303,,(602) 926-3498,(602) 926-3558,(602) 926-3694,
INTERMOUNTAIN CENTERS FOR HUMAN DEVELOPMENT,17.0,BH2914,001cs00000WoB38AAF,Intermountain Centers for Human Development,https://www.intermountaincenters.org/,1310 North Speedway Place,Tucson,85715.0,Pima,8.0,5207211887,,Kevin Volk,Rachel Keshel,"Venden ""Vince"" Leach",,D,R,R,,Email: KVOLK,Email: RKESHEL,Email: VLEACH,,Room 119,Room 303,Room 303,,(602) 926-3498,(602) 926-3558,(602) 926-3694,
"INTERMOUNTAIN CENTERS FOR HUMAN DEVELOPMENT, INC",18.0,BH7317,001cs00000WoB3CAAV,Intermountain Centers for Human Development,https://www.intermountaincenters.org/,"2502 North Dodge Boulevard, Suite 160",Tucson,85716.0,Pima,10.0,5207211887,,Christopher Mathis,Nancy Gutierrez -- Assistant Minority Leader,Priya Sundareshan -- Minority Leader,,D,D,D,,Email: CMATHIS,Email: NGUTIERREZ,Email: PSUNDARESHAN,,Room 337,Room 330,Room 213,,(602) 926-3138,(602) 926-4134,(602) 926-3437,
"INTERMOUNTAIN CENTERS FOR HUMAN DEVELOPMENT, INC",18.0,BH9011,001cs00000WoB3DAAV,Intermountain Centers for Human Development,https://www.intermountaincenters.org/,"2502 North Dodge Boulevard, Suite 190a",Tucson,85716.0,Pima,10.0,5207211887,,Christopher Mathis,Nancy Gutierrez -- Assistant Minority Leader,Priya Sundareshan -- Minority Leader,,D,D,D,,Email: CMATHIS,Email: NGUTIERREZ,Email: PSUNDARESHAN,,Room 337,Room 330,Room 213,,(602) 926-3138,(602) 926-4134,(602) 926-3437,
LIFE CHANGE FAMILY SERVICES INC,15.0,BH5008,001cs00000WoBcdAAF,,Not found,20018 North Toledo Avenue,Maricopa,85138.0,Pinal,5.0,5203740072,,Michael Way,Neal Carter -- Speaker Pro Tempore,Jake Hoffman,,R,R,R,,Email: MWAY,Email: NCARTER,Email: JAKE.HOFFMAN,,Room 308,Room 204,Room 306,,(602) 926-3433,(602) 926-5761,(602) 926-3292,
LIFE IS A CIRCLE LLC,14.0,BH7205,001cs00000WoBceAAF,,Not found,40879 North Coyote Road,San Tan Valley,85140.0,Pinal,7.0,4802867703,,Khyl Powell,Laurin Hendrix,Warren Petersen -- President,,R,R,R,,Email: KPOWELL,Email: LHENDRIX,Email: WPETERSEN,,Room 342,Room 114,Room 205,,(602) 926-3415,(602) 926-4209,(602) 926-4136,
LWB HOLLY HOUSE,4.0,BH10366,001cs00000WoBr0AAF,,Not found,8315 East Holly Street,Scottsdale,85257.0,Maricopa,10.0,(480)708-1187,,Pamela Carter,Matt Gress,Carine Werner,,R,R,R,,Email: PCARTER,Email: MGRESS,Email: CWERNER,,Room 304,Room 205,Room 301,,(602) 926-3153,(602) 926-4105,(602) 926-3673,
LWB WINTHROP HOUSE,9.0,BH10232,001cs00000WoBr1AAF,,Not found,908 North Winthrop Circle,Mesa,85213.0,Maricopa,10.0,(480)708-1187,,Lorena Austin,Seth Blattman,Eva Burch,Kiana Sears,D,D,D,D,Email: LAUSTIN,Email: SBLATTMAN,Resigned 03/14/25,Email: KSEARS,Room 124,Room 125,,Room 314,(602) 926-3968,(602) 926-3996,,(602) 926-3374
MATTIES CARE HOUSE LLC,21.0,BH4867,001cs00000WoC3jAAF,,Not found,6823 West Pleasant Lane,Laveen,85339.0,Maricopa,10.0,6026860419,,Stephanie Stahl Hamilton,Consuelo Hernandez,Rosanna Gabaldón -- Minority Whip,,D,D,D,,Email: SSTAHLHAMILTON,Email: CHERNANDEZ,Email: RGABALDON,,Room 333,Room 117,Room 305,,(602) 926-3279,(602) 926-3523,(602) 926-3424,
MATTIES CARE HOUSE LLC,21.0,BH8438,001cs00000WoC3kAAF,,Not found,8015 South 23rd Drive,Phoenix,85040.0,Maricopa,5.0,6026860419,,Stephanie Stahl Hamilton,Consuelo Hernandez,Rosanna Gabaldón -- Minority Whip,,D,D,D,,Email: SSTAHLHAMILTON,Email: CHERNANDEZ,Email: RGABALDON,,Room 333,Room 117,Room 305,,(602) 926-3279,(602) 926-3523,(602) 926-3424,
MINDFIT 360,29.0,BH9628,001cs00000WoC6KAAV,,Not found,30175 West Fairmount Avenue,Buckeye,85396.0,Maricopa,5.0,4025154874,,James Taylor,Steve Montenegro -- Speaker,Janae Shamp,,R,R,R,,Email: JTAYLOR,Email: SMONTENEGRO,Email: JSHAMP,,Room 344,Room 223,Room 212,,(602) 926-3564,(602) 926-3635,(602) 926-3499,
"MINGUS MOUNTAIN ESTATE RESIDENTIAL CENTER, INC",5.0,BH1122,001cs00000WoC6MAAV,Vivant Behavioral Healthcare ,https://www.mmytc.com/,100 Dewey Road,Dewey,86327.0,Yavapai,9.0,6023352000,,Aaron Márquez,Sarah Liguori,Lela Alston -- Minority Caucus Chair,,D,D,D,,Email: AMARQUEZ,Email: SLIGUORI,Email: LALSTON,,Room 123,Room 115,Room 315,,(602) 926-3179,(602) 926-3264,(602) 926-5829,
"MINGUS MOUNTAIN ESTATE RESIDENTIAL CENTER, INC",5.0,BH1487,001cs00000WoC6NAAV,Vivant Behavioral Healthcare ,https://www.mmytc.com/,3801 North Robert Road,Prescott Valley,86312.0,Yavapai,8.0,6023352000,,Aaron Márquez,Sarah Liguori,Lela Alston -- Minority Caucus Chair,,D,D,D,,Email: AMARQUEZ,Email: SLIGUORI,Email: LALSTON,,Room 123,Room 115,Room 315,,(602) 926-3179,(602) 926-3264,(602) 926-5829,
MISS A'S LLC,26.0,BH5029,001cs00000WoCJYAA3,,Not found,8606 North 68th Lane,Peoria,85345.0,Maricopa,8.0,6236700039,,Quantá Crews -- Minority Whip,Cesar Aguilar,Flavio Bravo,,D,D,D,,Email: QCREWS,Email: CAGUILAR,Email: FBRAVO,,Room 321,Room 122,Room 213,,(602) 926-3256,(602) 926-3953,(602) 926-4033,
MISS A'S LLC,27.0,BH6116,001cs00000WoCJZAA3,,Not found,9143 North 82nd Lane,Peoria,85345.0,Maricopa,8.0,6236700039,,Lisa Fink,Tony Rivero,Kevin Payne,,R,R,R,,Email: LFINK,Email: TRIVERO,Email: KPAYNE,,Room 345,Room 112,Room 302,,(602) 926-3516,(602) 926-3528,(602) 926-4854,
MOHAVE MENTAL HEALTH CLINIC INC - DIAMOND HOUSE,30.0,BH5202,001cs00000WoCJoAAN,,Not found,3745 North Diamond Drive,Kingman,86409.0,Mohave,10.0,9286815591,,Leo Biasiucci,John Gillette,Hildy Angius,,R,R,R,,Email: LBIASIUCCI,Email: JGILLETTE,Email: HANGIUS,,Room 110,Room 130,Room 302,,(602) 926-3018,(602) 926-4100,(602) 926-5051,
MONTE NIDO ROSEWOOD SCOTTSDALE,4.0,BH9530,001cs00000WoCKBAA3,Monte Nido,https://www.montenido.com/locations/rosewood-scottsdale/,14138 East Peak View Road,Scottsdale,85262.0,Maricopa,10.0,4805206848,,Pamela Carter,Matt Gress,Carine Werner,,R,R,R,,Email: PCARTER,Email: MGRESS,Email: CWERNER,,Room 304,Room 205,Room 301,,(602) 926-3153,(602) 926-4105,(602) 926-3673,
MS MIMI CARING HEART LLC,15.0,BH10227,001cs00000WoCLPAA3,,Not found,3466 West Sunshine Butte Drive,Queen Creek,85142.0,Maricopa,5.0,6026160039,,Michael Way,Neal Carter -- Speaker Pro Tempore,Jake Hoffman,,R,R,R,,Email: MWAY,Email: NCARTER,Email: JAKE.HOFFMAN,,Room 308,Room 204,Room 306,,(602) 926-3433,(602) 926-5761,(602) 926-3292,
New Haven Communities LLC,21.0,BH8411,001cs00000WoCXRAA3,,Not found,4379 West Allen Street,Laveen,85339.0,Maricopa,9.0,6024195244,,Stephanie Stahl Hamilton,Consuelo Hernandez,Rosanna Gabaldón -- Minority Whip,,D,D,D,,Email: SSTAHLHAMILTON,Email: CHERNANDEZ,Email: RGABALDON,,Room 333,Room 117,Room 305,,(602) 926-3279,(602) 926-3523,(602) 926-3424,
NEW HOPE OF ARIZONA INC,22.0,BH4629,001cs00000WoCXcAAN,New Hope of Arizona Inc,https://www.newhopeaz.org/,21615 West Watkins Street,Buckeye,85326.0,Maricopa,4.0,6025355686,,Elda Luna-Nájera,Lupe Contreras,Eva Diaz,,D,D,D,,Email: ELUNA-NAJERA,Email: LCONTRERAS,Email: EVA.DIAZ,,Room 332,Room 331,Room 313,,(602) 926-3881,(602) 926-5284,(602) 926-3473,
NEW HOPE OF ARIZONA INC,23.0,BH4630,001cs00000WoCXdAAN,New Hope of Arizona Inc,https://www.newhopeaz.org/,1881 South 235th Drive,Buckeye,85326.0,Maricopa,4.0,6025355686,,Michele Peña,Mariana Sandoval,Brian Fernandez,,R,D,D,,Email: MPENA,Email: MSANDOVAL,Email: BFERNANDEZ,,Room 341,Room 326,Room 312,,(602) 926-3696,(602) 926-3740,(602) 926-3098,
NEW HOPE OF ARIZONA INC,21.0,BH4921,001cs00000WoCXfAAN,New Hope of Arizona Inc,https://www.newhopeaz.org/,3120 West Pollack Street,Phoenix,85041.0,Maricopa,4.0,6025355686,,Stephanie Stahl Hamilton,Consuelo Hernandez,Rosanna Gabaldón -- Minority Whip,,D,D,D,,Email: SSTAHLHAMILTON,Email: CHERNANDEZ,Email: RGABALDON,,Room 333,Room 117,Room 305,,(602) 926-3279,(602) 926-3523,(602) 926-3424,
NEW HOPE OF ARIZONA INC,21.0,BH5603,001cs00000WoCXgAAN,New Hope of Arizona Inc,https://www.newhopeaz.org/,7723 South 65th Lane,Laveen,85339.0,Maricopa,5.0,6025355686,,Stephanie Stahl Hamilton,Consuelo Hernandez,Rosanna Gabaldón -- Minority Whip,,D,D,D,,Email: SSTAHLHAMILTON,Email: CHERNANDEZ,Email: RGABALDON,,Room 333,Room 117,Room 305,,(602) 926-3279,(602) 926-3523,(602) 926-3424,
NEW HOPE OF ARIZONA INC,22.0,BH5762,001cs00000WoCXhAAN,New Hope of Arizona Inc,https://www.newhopeaz.org/,8149 West Forest Grove Avenue,Phoenix,85043.0,Maricopa,4.0,6025355686,,Elda Luna-Nájera,Lupe Contreras,Eva Diaz,,D,D,D,,Email: ELUNA-NAJERA,Email: LCONTRERAS,Email: EVA.DIAZ,,Room 332,Room 331,Room 313,,(602) 926-3881,(602) 926-5284,(602) 926-3473,
NEW HOPE OF ARIZONA INC,22.0,BH5839,001cs00000WoCXiAAN,New Hope of Arizona Inc,https://www.newhopeaz.org/,2428 South 86th Drive,Tolleson,85353.0,Maricopa,4.0,6025355686,,Elda Luna-Nájera,Lupe Contreras,Eva Diaz,,D,D,D,,Email: ELUNA-NAJERA,Email: LCONTRERAS,Email: EVA.DIAZ,,Room 332,Room 331,Room 313,,(602) 926-3881,(602) 926-5284,(602) 926-3473,
NEW HOPE OF ARIZONA INC,22.0,BH6282,001cs00000WoCXjAAN,New Hope of Arizona Inc,https://www.newhopeaz.org/,8710 West Watkins Street,Tolleson,85353.0,Maricopa,4.0,6025355686,,Elda Luna-Nájera,Lupe Contreras,Eva Diaz,,D,D,D,,Email: ELUNA-NAJERA,Email: LCONTRERAS,Email: EVA.DIAZ,,Room 332,Room 331,Room 313,,(602) 926-3881,(602) 926-5284,(602) 926-3473,
NEW HOPE OF ARIZONA INC,22.0,BH6882,0018y000008f8SeAAI,New Hope of Arizona Inc,https://www.newhopeaz.org/,2921 South 74th Drive,Phoenix,85043.0,Maricopa,4.0,6025355686,,Elda Luna-Nájera,Lupe Contreras,Eva Diaz,,D,D,D,,Email: ELUNA-NAJERA,Email: LCONTRERAS,Email: EVA.DIAZ,,Room 332,Room 331,Room 313,,(602) 926-3881,(602) 926-5284,(602) 926-3473,
NEW HOPE OF ARIZONA INC,22.0,BH6883,001cs00000WoCXlAAN,New Hope of Arizona Inc,https://www.newhopeaz.org/,12545 West Woodland Avenue,Avondale,85323.0,Maricopa,4.0,6025355686,,Elda Luna-Nájera,Lupe Contreras,Eva Diaz,,D,D,D,,Email: ELUNA-NAJERA,Email: LCONTRERAS,Email: EVA.DIAZ,,Room 332,Room 331,Room 313,,(602) 926-3881,(602) 926-5284,(602) 926-3473,
NEW HOPE OF ARIZONA INC,22.0,BH9223,001cs00000WoCXmAAN,New Hope of Arizona Inc,https://www.newhopeaz.org/,8621 West Sonora Street,Tolleson,85353.0,Maricopa,4.0,6025355686,,Elda Luna-Nájera,Lupe Contreras,Eva Diaz,,D,D,D,,Email: ELUNA-NAJERA,Email: LCONTRERAS,Email: EVA.DIAZ,,Room 332,Room 331,Room 313,,(602) 926-3881,(602) 926-5284,(602) 926-3473,
NEW HOPE OF ARIZONA INCORPORATED,25.0,BH4305,001cs00000WoCXnAAN,New Hope of Arizona Inc,https://www.newhopeaz.org/,11213 West Coronado Road,Avondale,85392.0,Maricopa,3.0,6025355686,,Nick Kupper,Michael Carbone -- Majority Leader,"Timothy ""Tim"" Dunn",,R,R,R,,Email: NKUPPER,Email: MCARBONE,Email: TDUNN,,Room 318,Room 208,Room 310,,(602) 926-3512,(602) 926-4038,(602) 926-4139,
"NEW HOPE OF ARIZONA, INC",25.0,BH4774,001cs00000WoCXeAAN,New Hope of Arizona Inc,https://www.newhopeaz.org/,12834 W Sells Dr,Litchfield Park,85340.0,Maricopa,3.0,6025355686,,Nick Kupper,Michael Carbone -- Majority Leader,"Timothy ""Tim"" Dunn",,R,R,R,,Email: NKUPPER,Email: MCARBONE,Email: TDUNN,,Room 318,Room 208,Room 310,,(602) 926-3512,(602) 926-4038,(602) 926-4139,
"NEW HOPE OF ARIZONA, INCORPORATED",25.0,BH4385,001cs00000WoCXoAAN,New Hope of Arizona Inc,https://www.newhopeaz.org/,10766 West Cambridge Avenue,Avondale,85392.0,Maricopa,3.0,6025355686,,Nick Kupper,Michael Carbone -- Majority Leader,"Timothy ""Tim"" Dunn",,R,R,R,,Email: NKUPPER,Email: MCARBONE,Email: TDUNN,,Room 318,Room 208,Room 310,,(602) 926-3512,(602) 926-4038,(602) 926-4139,
Nexus Teen Academy LLC,4.0,BH9428,001cs00000WoDChAAN,,https://nexusteenacademy.com,2695 East Saddle Mountain Road,Cave Creek,85331.0,Maricopa,10.0,6232564184,,Pamela Carter,Matt Gress,Carine Werner,,R,R,R,,Email: PCARTER,Email: MGRESS,Email: CWERNER,,Room 304,Room 205,Room 301,,(602) 926-3153,(602) 926-4105,(602) 926-3673,
OPEN HEARTS,14.0,BH10413,001cs00000WoDSsAAN,,Not found,21853 South 214th Street,Queen Creek,85142.0,Maricopa,8.0,6022855550,,Khyl Powell,Laurin Hendrix,Warren Petersen -- President,,R,R,R,,Email: KPOWELL,Email: LHENDRIX,Email: WPETERSEN,,Room 342,Room 114,Room 205,,(602) 926-3415,(602) 926-4209,(602) 926-4136,
OUR HOUSE RESIDENTIALS,27.0,BH5607,001cs00000WoDTqAAN,,Not found,8910 West Monroe Street,Peoria,85345.0,Maricopa,10.0,6232484347,,Lisa Fink,Tony Rivero,Kevin Payne,,R,R,R,,Email: LFINK,Email: TRIVERO,Email: KPAYNE,,Room 345,Room 112,Room 302,,(602) 926-3516,(602) 926-3528,(602) 926-4854,
PILLAR WELLNESS SOLUTIONS,2.0,BH10068,001cs00000WoDzkAAF,,Not found,17629 North 36th Street,Phoenix,85032.0,Maricopa,10.0,6232552542,,Stephanie Simacek,Justin Wilmeth,Shawnna Bolick,,D,R,R,,Email: SSIMACEK,Email: JWILMETH,Email: SBOLICK,,Room 120,Room 111,Room 307,,(602) 926-3083,(602) 926-5044,(602) 926-3314,
PILLAR WELLNESS SOLUTIONS VIII LLC,9.0,BH10067,001cs00000WoDzyAAF,,Not found,1051 North Grand,Mesa,85201.0,Maricopa,10.0,4809259065,,Lorena Austin,Seth Blattman,Eva Burch,Kiana Sears,D,D,D,D,Email: LAUSTIN,Email: SBLATTMAN,Resigned 03/14/25,Email: KSEARS,Room 124,Room 125,,Room 314,(602) 926-3968,(602) 926-3996,,(602) 926-3374
PROGRESSIVE HEALTH ALLIANCE,21.0,BH7118,001cs00000WoEDuAAN,,Not found,4605 West Donner Drive,Laveen,85339.0,Maricopa,10.0,4804276723,,Stephanie Stahl Hamilton,Consuelo Hernandez,Rosanna Gabaldón -- Minority Whip,,D,D,D,,Email: SSTAHLHAMILTON,Email: CHERNANDEZ,Email: RGABALDON,,Room 333,Room 117,Room 305,,(602) 926-3279,(602) 926-3523,(602) 926-3424,
"PTL BEHAVIORAL HEALTH, LLC",14.0,BH8503,001cs00000WoEEaAAN,,Not found,10839 East Sonrisa Avenue,Mesa,85212.0,Maricopa,9.0,4804856075,,Khyl Powell,Laurin Hendrix,Warren Petersen -- President,,R,R,R,,Email: KPOWELL,Email: LHENDRIX,Email: WPETERSEN,,Room 342,Room 114,Room 205,,(602) 926-3415,(602) 926-4209,(602) 926-4136,
R M B H S COGDELL HOUSE,10.0,BH3633,001cs00000WoEFLAA3,Red Mountain Behavioral Health,https://hsapps.azdhs.gov/ls/sod/Provider.aspx?ProviderName=Red+mountain+Behavioral,6661 East Hermosa Vista Drive,Mesa,85215.0,Maricopa,8.0,4806419552,,Justin Olson,Ralph Heap,David C. Farnsworth,,R,R,R,,Email: JOLSON,Email: RHEAP,Email: DFARNSWORTH,,Room 113,Room 309,Room 303,,(602) 926-3376,(602) 926-3381,(602) 926-3387,
R M B H S LAKEVIEW HOUSE,10.0,BH3637,001cs00000WoEFMAA3,Red Mountain Behavioral Health,https://hsapps.azdhs.gov/ls/sod/Provider.aspx?ProviderName=Red+mountain+Behavioral,7005 East Lakeview Avenue,Mesa,85209.0,Maricopa,7.0,4806419552,,Justin Olson,Ralph Heap,David C. Farnsworth,,R,R,R,,Email: JOLSON,Email: RHEAP,Email: DFARNSWORTH,,Room 113,Room 309,Room 303,,(602) 926-3376,(602) 926-3381,(602) 926-3387,
R M B H S PLATA HOUSE,14.0,BH3640,001cs00000WoEFOAA3,Red Mountain Behavioral Health,https://hsapps.azdhs.gov/ls/sod/Provider.aspx?ProviderName=Red+mountain+Behavioral,7956 East Plata Avenue,Mesa,85212.0,Maricopa,10.0,4806419552,,Khyl Powell,Laurin Hendrix,Warren Petersen -- President,,R,R,R,,Email: KPOWELL,Email: LHENDRIX,Email: WPETERSEN,,Room 342,Room 114,Room 205,,(602) 926-3415,(602) 926-4209,(602) 926-4136,
R M B H S RENATA HOUSE,14.0,BH3631,001cs00000WoEFPAA3,Red Mountain Behavioral Health,https://hsapps.azdhs.gov/ls/sod/Provider.aspx?ProviderName=Red+mountain+Behavioral,11329 East Renata Avenue,Mesa,85212.0,Maricopa,10.0,4806419552,,Khyl Powell,Laurin Hendrix,Warren Petersen -- President,,R,R,R,,Email: KPOWELL,Email: LHENDRIX,Email: WPETERSEN,,Room 342,Room 114,Room 205,,(602) 926-3415,(602) 926-4209,(602) 926-4136,
R M B H S SOMERSET HOUSE,10.0,BH3632,001cs00000WoEFQAA3,Red Mountain Behavioral Health,https://hsapps.azdhs.gov/ls/sod/Provider.aspx?ProviderName=Red+mountain+Behavioral,1533 South Somerset Circle,Mesa,85206.0,Maricopa,8.0,4806419552,,Justin Olson,Ralph Heap,David C. Farnsworth,,R,R,R,,Email: JOLSON,Email: RHEAP,Email: DFARNSWORTH,,Room 113,Room 309,Room 303,,(602) 926-3376,(602) 926-3381,(602) 926-3387,
R M B H S VINCENT HOUSE,10.0,BH3792,001cs00000WoEFRAA3,Red Mountain Behavioral Health,https://hsapps.azdhs.gov/ls/sod/Provider.aspx?ProviderName=Red+mountain+Behavioral,1320 North Vincent Circle,Mesa,85207.0,Maricopa,10.0,4806419552,,Justin Olson,Ralph Heap,David C. Farnsworth,,R,R,R,,Email: JOLSON,Email: RHEAP,Email: DFARNSWORTH,,Room 113,Room 309,Room 303,,(602) 926-3376,(602) 926-3381,(602) 926-3387,
RE-CREATION RETREAT,6.0,BH3895,001cs00000WoEFqAAN,,https://web.archive.org/web/20160407183139/http://www.re-creationretreat.com:80/,465 South Main,Fredonia,86022.0,Coconino,40.0,9286436000,,Myron Tsosie,Mae Peshlakai,Theresa Hatathlie,,D,D,D,,Email: MTSOSIE,Email: MPESHLAKAI,Email: THATATHLIE,,Room 339,Room 116,Room 311,,(602) 926-3157,(602) 926-3708,(602) 926-5160,
RED HAWK BEHAVIORAL HEALTH LLC,30.0,BH5273,001cs00000WoESjAAN,,https://www.redhawkrtc.com/,3767 South Scenic Boulevard,Littlefield,86432.0,Mohave,24.0,4352365424,,Leo Biasiucci,John Gillette,Hildy Angius,,R,R,R,,Email: LBIASIUCCI,Email: JGILLETTE,Email: HANGIUS,,Room 110,Room 130,Room 302,,(602) 926-3018,(602) 926-4100,(602) 926-5051,
RMBHS POSADA HOUSE,14.0,BH5175,001cs00000WoEiXAAV,Red Mountain Behavioral Health,https://hsapps.azdhs.gov/ls/sod/Provider.aspx?ProviderName=Red+mountain+Behavioral,10634 East Posada Avenue,Mesa,85212.0,Maricopa,9.0,4806419552,,Khyl Powell,Laurin Hendrix,Warren Petersen -- President,,R,R,R,,Email: KPOWELL,Email: LHENDRIX,Email: WPETERSEN,,Room 342,Room 114,Room 205,,(602) 926-3415,(602) 926-4209,(602) 926-4136,
SAHARAN OASIS,22.0,BH7034,001cs00000WoEyOAAV,,Not found,1705 South 64th Avenue,Phoenix,85043.0,Maricopa,5.0,6025743610,,Elda Luna-Nájera,Lupe Contreras,Eva Diaz,,D,D,D,,Email: ELUNA-NAJERA,Email: LCONTRERAS,Email: EVA.DIAZ,,Room 332,Room 331,Room 313,,(602) 926-3881,(602) 926-5284,(602) 926-3473,
SAN TAN BEHAVIORAL HEALTH SERVICES LLC,10.0,BH5514,001cs00000WoEyqAAF,,https://santanbh.com/,3970 East Juanita Avenue,Gilbert,85234.0,Maricopa,8.0,4805073644,,Justin Olson,Ralph Heap,David C. Farnsworth,,R,R,R,,Email: JOLSON,Email: RHEAP,Email: DFARNSWORTH,,Room 113,Room 309,Room 303,,(602) 926-3376,(602) 926-3381,(602) 926-3387,
SRC DESERT COVE,5.0,BH8548,001cs00000WoFaiAAF,,Not found,1340 East Desert Cove,Phoenix,85020.0,Maricopa,10.0,6026123816,,Aaron Márquez,Sarah Liguori,Lela Alston -- Minority Caucus Chair,,D,D,D,,Email: AMARQUEZ,Email: SLIGUORI,Email: LALSTON,,Room 123,Room 115,Room 315,,(602) 926-3179,(602) 926-3264,(602) 926-5829,
STEP TWO RECOVERY CENTER,14.0,BH2607,001cs00000WoFldAAF,,https://www.steptworecovery.com/,3771 East Brooks Farm Road,Gilbert,85298.0,Maricopa,8.0,4809883376,,Khyl Powell,Laurin Hendrix,Warren Petersen -- President,,R,R,R,,Email: KPOWELL,Email: LHENDRIX,Email: WPETERSEN,,Room 342,Room 114,Room 205,,(602) 926-3415,(602) 926-4209,(602) 926-4136,
STREETLIGHTUSA,24.0,BH5096,001cs00000WoFmHAAV,,https://www.streetlightusa.org/,"6805 North 81st Ave, Units 150, 160, & Bldg A",Glendale,85303.0,Maricopa,8.0,6234350900,,Anna Abeytia,Lydia Hernandez,Analise Ortiz,,D,D,D,,Email: AABEYTIA,Email: LHERNANDEZ,Email: ANALISE.ORTIZ,,Room 121,Room 334,Room 308,,(602) 926-3501,(602) 926-3553,(602) 926-3633,
SUNFLOWER LIVING LLC,25.0,BH7288,001cs00000WoFnjAAF,,Not found,8506 West Highland Avenue,Phoenix,85037.0,Maricopa,5.0,419-902-6878,,Nick Kupper,Michael Carbone -- Majority Leader,"Timothy ""Tim"" Dunn",,R,R,R,,Email: NKUPPER,Email: MCARBONE,Email: TDUNN,,Room 318,Room 208,Room 310,,(602) 926-3512,(602) 926-4038,(602) 926-4139,
SUNNY SIDE GROUP HOME,16.0,BH9801,001cs00000WoFnyAAF,,Not found,252 West Caribbean Drive,Casa Grande,85122.0,Pinal,7.0,2028805147,,Teresa Martinez,Chris Lopez,"Thomas ""T.J."" Shope -- President Pro Tempore",,R,R,R,,Email: TMARTINEZ,Email: CLOPEZ,Email: TSHOPE,,Room 129,Room 310,Room 212,,(602) 926-3158,(602) 926-3445,(602) 926-3012,
THE U - TURN FOUNDATION,10.0,BH2457,001cs00000WoGW9AAN,,Not found,4005 East Edgewood Avenue,Mesa,85206.0,Maricopa,10.0,4806341163,,Justin Olson,Ralph Heap,David C. Farnsworth,,R,R,R,,Email: JOLSON,Email: RHEAP,Email: DFARNSWORTH,,Room 113,Room 309,Room 303,,(602) 926-3376,(602) 926-3381,(602) 926-3387,
THE U-TURN FOUNDATION / KEEP RIGHT,9.0,BH3468,001cs00000WoGWAAA3,,Not found,1820 South Los Alamos,Mesa,85204.0,Maricopa,10.0,4806341163,,Lorena Austin,Seth Blattman,Eva Burch,Kiana Sears,D,D,D,D,Email: LAUSTIN,Email: SBLATTMAN,Resigned 03/14/25,Email: KSEARS,Room 124,Room 125,,Room 314,(602) 926-3968,(602) 926-3996,,(602) 926-3374
THY GRACE CARE 2,15.0,BH9989,001cs00000WoGexAAF,,Not found,37728 West San Capistrano Avenue,Maricopa,85138.0,Pinal,6.0,6144324351,,Michael Way,Neal Carter -- Speaker Pro Tempore,Jake Hoffman,,R,R,R,,Email: MWAY,Email: NCARTER,Email: JAKE.HOFFMAN,,Room 308,Room 204,Room 306,,(602) 926-3433,(602) 926-5761,(602) 926-3292,
TREE OF LIFE ARIZONA,9.0,BH4477,001cs00000WoGguAAF,,https://www.treeoflifeaz.org/,1659 East Draper,Mesa,85203.0,Maricopa,5.0,4802419963,,Lorena Austin,Seth Blattman,Eva Burch,Kiana Sears,D,D,D,D,Email: LAUSTIN,Email: SBLATTMAN,Resigned 03/14/25,Email: KSEARS,Room 124,Room 125,,Room 314,(602) 926-3968,(602) 926-3996,,(602) 926-3374
TREE OF LIFE ARIZONA,9.0,BH5668,001cs00000WoGgvAAF,,https://www.treeoflifeaz.org/,2935 East Dartmouth Street,Mesa,85213.0,Maricopa,10.0,4802846498,,Lorena Austin,Seth Blattman,Eva Burch,Kiana Sears,D,D,D,D,Email: LAUSTIN,Email: SBLATTMAN,Resigned 03/14/25,Email: KSEARS,Room 124,Room 125,,Room 314,(602) 926-3968,(602) 926-3996,,(602) 926-3374
YOUTH DEVELOPMENT INSTITUTE,1.0,BH1125,0018y000008fB0sAAE,Youth Development Institute,https://ydi.org/,1050-B North 19th Street,Phoenix,85006.0,Maricopa,16.0,6022565300,,Quang H Nguyen,Selina Bliss,Mark Finchem,,R,R,R,,Email: QNGUYEN,Email: SBLISS,Email: MFINCHEM,,Room 226,Room 306,Room 304,,(602) 926-3258,(602) 926-4018,(602) 926-3631,
YOUTH DEVELOPMENT INSTITUTE,8.0,BH3061,001cs00000WnyTQAAZ,Youth Development Institute,https://ydi.org/,1921 East Portland Street,Phoenix,85006.0,Maricopa,10.0,6022565300,,Janeen Connolly,Brian Garcia,Lauren Kuby,,D,D,D,,Email: JCONNOLLY,Email: BGARCIA,Email: LKUBY,,Room 118,Room 335,Room 311,,(602) 926-3300,(602) 926-3329,(602) 926-4124,
YOUTH DEVELOPMENT INSTITUTE,1.0,BH311,001cs00000WnyTRAAZ,Youth Development Institute,https://ydi.org/,1050-A North 19th Street,Phoenix,85006.0,Maricopa,16.0,6022565300,,Quang H Nguyen,Selina Bliss,Mark Finchem,,R,R,R,,Email: QNGUYEN,Email: SBLISS,Email: MFINCHEM,,Room 226,Room 306,Room 304,,(602) 926-3258,(602) 926-4018,(602) 926-3631,
YOUTH DEVELOPMENT INSTITUTE - PORTLAND HOUSE I I,8.0,BH3760,001cs00000WnyTSAAZ,Youth Development Institute,https://ydi.org/,1927 East Portland Street,Phoenix,85006.0,Maricopa,6.0,6022565300,,Janeen Connolly,Brian Garcia,Lauren Kuby,,D,D,D,,Email: JCONNOLLY,Email: BGARCIA,Email: LKUBY,,Room 118,Room 335,Room 311,,(602) 926-3300,(602) 926-3329,(602) 926-4124,
ZAREPHATH APACHE HOUSE,14.0,BH4725,001cs00000WnyTaAAJ,ZR Path,https://zrpath.com/,2060 East 37th Avenue,Apache Junction,85119.0,Pinal,10.0,4805186826,,Khyl Powell,Laurin Hendrix,Warren Petersen -- President,,R,R,R,,Email: KPOWELL,Email: LHENDRIX,Email: WPETERSEN,,Room 342,Room 114,Room 205,,(602) 926-3415,(602) 926-4209,(602) 926-4136,
ZAREPHATH CHAPARRAL HOUSE,14.0,BH4880,001cs00000WnyTbAAJ,ZR Path,https://zrpath.com/,3838 South Chaparral Road,Apache Junction,85119.0,Pinal,10.0,4805186826,,Khyl Powell,Laurin Hendrix,Warren Petersen -- President,,R,R,R,,Email: KPOWELL,Email: LHENDRIX,Email: WPETERSEN,,Room 342,Room 114,Room 205,,(602) 926-3415,(602) 926-4209,(602) 926-4136,
ZAREPHATH INC,20.0,BH3618,001cs00000WnyTeAAJ,ZR Path,https://zrpath.com/,2194 West Painted Sunset Circle,Tucson,85745.0,Pima,7.0,4805186826,,Betty J Villegas,Alma Hernandez,Sally Ann Gonzales,,D,D,D,,Email: BVILLEGAS,Email: AHERNANDEZ,Email: SGONZALES,,Room 324,Room 338,Room 314,,(602) 926-3027,(602) 926-3136,(602) 926-3278,
ZAREPHATH INC,10.0,BH3621,001cs00000WnyTgAAJ,ZR Path,https://zrpath.com/,7247 East Milagro Avenue,Mesa,85209.0,Maricopa,8.0,4805186826,,Justin Olson,Ralph Heap,David C. Farnsworth,,R,R,R,,Email: JOLSON,Email: RHEAP,Email: DFARNSWORTH,,Room 113,Room 309,Room 303,,(602) 926-3376,(602) 926-3381,(602) 926-3387,
ZAREPHATH INC,10.0,BH4096,001cs00000WnyThAAJ,ZR Path,https://zrpath.com/,9310 East Princess Drive,Mesa,85207.0,Maricopa,8.0,4805186826,,Justin Olson,Ralph Heap,David C. Farnsworth,,R,R,R,,Email: JOLSON,Email: RHEAP,Email: DFARNSWORTH,,Room 113,Room 309,Room 303,,(602) 926-3376,(602) 926-3381,(602) 926-3387,
ZAREPHATH INC,14.0,BH4097,001cs00000WnyTiAAJ,ZR Path,https://zrpath.com/,11358 East Sonrisa Avenue,Mesa,85212.0,Maricopa,8.0,4805186826,,Khyl Powell,Laurin Hendrix,Warren Petersen -- President,,R,R,R,,Email: KPOWELL,Email: LHENDRIX,Email: WPETERSEN,,Room 342,Room 114,Room 205,,(602) 926-3415,(602) 926-4209,(602) 926-4136,
ZAREPHATH INC,20.0,BH4117,001cs00000WnyTjAAJ,ZR Path,https://zrpath.com/,3035 West Montage Vista Drive,Tucson,85745.0,Pima,8.0,4805186826,,Betty J Villegas,Alma Hernandez,Sally Ann Gonzales,,D,D,D,,Email: BVILLEGAS,Email: AHERNANDEZ,Email: SGONZALES,,Room 324,Room 338,Room 314,,(602) 926-3027,(602) 926-3136,(602) 926-3278,
ZAREPHATH YUMA HOUSE,23.0,BH4848,001cs00000WnyTdAAJ,ZR Path,https://zrpath.com/,11680 East 36th Street,Yuma,85367.0,Yuma,8.0,4805186826,,Michele Peña,Mariana Sandoval,Brian Fernandez,,R,D,D,,Email: MPENA,Email: MSANDOVAL,Email: BFERNANDEZ,,Room 341,Room 326,Room 312,,(602) 926-3696,(602) 926-3740,(602) 926-3098,
"ZAREPHATH, INC",15.0,BH3620,001cs00000WnyTfAAJ,ZR Path,https://zrpath.com/,1701 South Cactus Road,Apache Junction,85119.0,Pinal,10.0,4805186826,,Michael Way,Neal Carter -- Speaker Pro Tempore,Jake Hoffman,,R,R,R,,Email: MWAY,Email: NCARTER,Email: JAKE.HOFFMAN,,Room 308,Room 204,Room 306,,(602) 926-3433,(602) 926-5761,(602) 926-3292,
